LANDSAT 9               
1 49260U 21088A   24127.90055544  .00000681  00000+0  16119-3 0  9993
2 49260  98.1887 198.2148 0001321  89.0939 271.0411 14.57112055138685
